ONEWEB-0228             
1 48780U 21045P   23249.84918358 -.00000084  00000+0 -25764-3 0  9995
2 48780  87.8950 101.1656 0001790  88.2721 271.8614 13.15547285110968
